ONEWEB-0363             
1 49289U 21090L   25356.27253353  .00000067  00000+0  13402-3 0  9990
2 49289  87.9213 309.7203 0002078  90.4073 269.7299 13.20772038206957
ONEWEB-0364             
1 49290U 21090M   25356.23465153  .00000224  00000+0  51803-3 0  9993
2 49290  87.9218 309.7503 0001895  83.1589 276.9760 13.20773006208089
ONEWEB-0365             
1 49291U 21090N   25355.92705687  .00000047  00000+0  85967-4 0  9990
2 49291  87.9216 340.2218 0001827  81.4094 278.7246 13.19724914203040
ONEWEB-0366             
1 49292U 21090P   25356.15756900  .00000049  00000+0  96410-4 0  9998
2 49292  87.8996 324.9891 0001796  84.6062 275.5273 13.14504026204306
ONEWEB-0367             
1 49293U 21090Q   25356.27095976  .00000020  00000+0  17922-4 0  9991
2 49293  87.9220 309.7203 0001744  75.2389 284.8937 13.20771644206476
ONEWEB-0368             
1 49294U 21090R   25356.24413437  .00000022  00000+0  21901-4 0  9999
2 49294  87.9210 309.7547 0002626  80.5773 279.5657 13.20771880207623
ONEWEB-0369             
1 49295U 21090S   25356.22557566  .00000236  00000+0  55640-3 0  9993
2 49295  87.9209 340.1878 0001905  83.4005 276.7344 13.19726949203078
ONEWEB-0370             
1 49296U 21090T   25356.12890982  .00000148  00000+0  33157-3 0  9996
2 49296  87.9210 309.7531 0001539  78.0350 282.0956 13.20771838206491
